start=new Date('2022-05-31T00:00:00.000Z').valueOf();
sats=[{"PERIAPSIS":"545.944","TLE_LINE1":"1 48375U 21038Y   22150.46104690 -.00003954  00000-0 -24685-3 0  9992","CLASSIFICATION_TYPE":"U","SITE":"AFETR","RCS_SIZE":"LARGE","EPHEMERIS_TYPE":"0","COUNTRY_CODE":"US","INCLINATION":"53.0572","TIME_SYSTEM":"UTC","APOAPSIS":"548.652","OBJECT_TYPE":"PAYLOAD","LAUNCH_DATE":"2021-05-04","MEAN_ANOMALY":"301.2492","ELEMENT_SET_NO":"999","MEAN_ELEMENT_THEORY":"SGP4","MEAN_MOTION_DDOT":"0.0000000000000","NORAD_CAT_ID":"48375","RA_OF_ASC_NODE":"63.2265","ECCENTRICITY":"0.00019550","PERIOD":"95.594","EPOCH":"2022-05-30T11:03:54.452160","SEMIMAJOR_AXIS":"6925.433","MEAN_MOTION":"15.06372531","ARG_OF_PERICENTER":"58.8689","CENTER_NAME":"EARTH","FILE":"3472495","DECAY_DATE":null,"REV_AT_EPOCH":"5928","MEAN_MOTION_DOT":"-0.00003954","GP_ID":"204941873","REF_FRAME":"TEME","OBJECT_ID":"2021-038Y","OBJECT_NAME":"STARLINK-2603","TLE_LINE2":"2 48375  53.0572  63.2265 0001955  58.8689 301.2492 15.06372531 59287","BSTAR":"-0.00024685000000"},{"FILE":"3472994","CENTER_NAME":"EARTH","ARG_OF_PERICENTER":"46.5835","SEMIMAJOR_AXIS":"6925.395","MEAN_MOTION":"15.06384962","TLE_LINE2":"2 48376  53.0560  61.7553 0001285  46.5835 313.5261 15.06384962 59338","BSTAR":"-0.00019669000000","OBJECT_ID":"2021-038Z","OBJECT_NAME":"STARLINK-2610","GP_ID":"204977344","REF_FRAME":"TEME","DECAY_DATE":null,"REV_AT_EPOCH":"5933","MEAN_MOTION_DOT":"-0.00003209","INCLINATION":"53.0560","COUNTRY_CODE":"US","APOAPSIS":"548.150","TIME_SYSTEM":"UTC","LAUNCH_DATE":"2021-05-04","OBJECT_TYPE":"PAYLOAD","ELEMENT_SET_NO":"999","MEAN_ANOMALY":"313.5261","RCS_SIZE":"LARGE","EPHEMERIS_TYPE":"0","PERIAPSIS":"546.370","TLE_LINE1":"1 48376U 21038Z   22150.78908513 -.00003209  00000-0 -19669-3 0  9993","SITE":"AFETR","CLASSIFICATION_TYPE":"U","PERIOD":"95.593","EPOCH":"2022-05-30T18:56:16.955232","NORAD_CAT_ID":"48376","RA_OF_ASC_NODE":"61.7553","ECCENTRICITY":"0.00012850","MEAN_MOTION_DDOT":"0.0000000000000","MEAN_ELEMENT_THEORY":"SGP4"},{"ECCENTRICITY":"0.00017890","RA_OF_ASC_NODE":"61.4656","NORAD_CAT_ID":"48377","MEAN_ELEMENT_THEORY":"SGP4","MEAN_MOTION_DDOT":"0.0000000000000","EPOCH":"2022-05-30T20:26:30.119136","PERIOD":"95.593","CLASSIFICATION_TYPE":"U","SITE":"AFETR","TLE_LINE1":"1 48377U 21038AA  22150.85173749 -.00000381  00000-0 -66737-5 0  9995","PERIAPSIS":"546.009","ELEMENT_SET_NO":"999","MEAN_ANOMALY":"302.4077","OBJECT_TYPE":"PAYLOAD","LAUNCH_DATE":"2021-05-04","TIME_SYSTEM":"UTC","APOAPSIS":"548.486","INCLINATION":"53.0552","COUNTRY_CODE":"US","EPHEMERIS_TYPE":"0","RCS_SIZE":"LARGE","REF_FRAME":"TEME","GP_ID":"204977094","MEAN_MOTION_DOT":"-0.00000381","REV_AT_EPOCH":"5934","DECAY_DATE":null,"BSTAR":"-0.00000667370000","TLE_LINE2":"2 48377  53.0552  61.4656 0001789  57.7085 302.4077 15.06388939 59342","OBJECT_NAME":"STARLINK-2499","OBJECT_ID":"2021-038AA","ARG_OF_PERICENTER":"57.7085","MEAN_MOTION":"15.06388939","SEMIMAJOR_AXIS":"6925.382","FILE":"3472994","CENTER_NAME":"EARTH"},{"REF_FRAME":"TEME","GP_ID":"204978342","DECAY_DATE":null,"REV_AT_EPOCH":"5934","MEAN_MOTION_DOT":"-0.00002237","BSTAR":"-0.00013140000000","TLE_LINE2":"2 48378  53.0560  61.4894 0001380  54.7485 305.3633 15.06379198 59341","OBJECT_ID":"2021-038AB","OBJECT_NAME":"STARLINK-2526","ARG_OF_PERICENTER":"54.7485","SEMIMAJOR_AXIS":"6925.412","MEAN_MOTION":"15.06379198","FILE":"3472994","CENTER_NAME":"EARTH","NORAD_CAT_ID":"48378","RA_OF_ASC_NODE":"61.4894","ECCENTRICITY":"0.00013800","MEAN_MOTION_DDOT":"0.0000000000000","MEAN_ELEMENT_THEORY":"SGP4","PERIOD":"95.593","EPOCH":"2022-05-30T20:21:12.180960","PERIAPSIS":"546.322","TLE_LINE1":"1 48378U 21038AB  22150.84805765 -.00002237  00000-0 -13140-3 0  9995","CLASSIFICATION_TYPE":"U","SITE":"AFETR","COUNTRY_CODE":"US","INCLINATION":"53.0560","TIME_SYSTEM":"UTC","APOAPSIS":"548.233","OBJECT_TYPE":"PAYLOAD","LAUNCH_DATE":"2021-05-04","MEAN_ANOMALY":"305.3633","ELEMENT_SET_NO":"999","RCS_SIZE":"LARGE","EPHEMERIS_TYPE":"0"},{"TLE_LINE2":"2 48379  53.0541  62.1008 0001016  66.2434 293.8661 15.06376094 59326","BSTAR":"-0.00019542000000","OBJECT_ID":"2021-038AC","OBJECT_NAME":"STARLINK-2612","REF_FRAME":"TEME","GP_ID":"204978592","DECAY_DATE":null,"REV_AT_EPOCH":"5932","MEAN_MOTION_DOT":"-0.00003189","FILE":"3472994","CENTER_NAME":"EARTH","ARG_OF_PERICENTER":"66.2434","SEMIMAJOR_AXIS":"6925.422","MEAN_MOTION":"15.06376094","PERIOD":"95.594","EPOCH":"2022-05-30T17:04:49.456992","NORAD_CAT_ID":"48379","RA_OF_ASC_NODE":"62.1008","ECCENTRICITY":"0.00010160","MEAN_ELEMENT_THEORY":"SGP4","MEAN_MOTION_DDOT":"0.0000000000000","COUNTRY_CODE":"US","INCLINATION":"53.0541","APOAPSIS":"547.990","TIME_SYSTEM":"UTC","LAUNCH_DATE":"2021-05-04","OBJECT_TYPE":"PAYLOAD","ELEMENT_SET_NO":"999","MEAN_ANOMALY":"293.8661","RCS_SIZE":"LARGE","EPHEMERIS_TYPE":"0","PERIAPSIS":"546.583","TLE_LINE1":"1 48379U 21038AC  22150.71168353 -.00003189  00000-0 -19542-3 0  9996","SITE":"AFETR","CLASSIFICATION_TYPE":"U"},{"OBJECT_NAME":"STARLINK-2614","OBJECT_ID":"2021-038AD","BSTAR":"-0.00021778000000","TLE_LINE2":"2 48380  53.0556  61.9839 0001460  39.2837 320.8258 15.06380024 59324","MEAN_MOTION_DOT":"-0.00003522","DECAY_DATE":null,"REV_AT_EPOCH":"5932","REF_FRAME":"TEME","GP_ID":"204976845","CENTER_NAME":"EARTH","FILE":"3472994","MEAN_MOTION":"15.06380024","SEMIMAJOR_AXIS":"6925.410","ARG_OF_PERICENTER":"39.2837","PERIOD":"95.593","EPOCH":"2022-05-30T17:40:37.234848","MEAN_MOTION_DDOT":"0.0000000000000","MEAN_ELEMENT_THEORY":"SGP4","ECCENTRICITY":"0.00014600","NORAD_CAT_ID":"48380","RA_OF_ASC_NODE":"61.9839","EPHEMERIS_TYPE":"0","RCS_SIZE":"LARGE","LAUNCH_DATE":"2021-05-04","OBJECT_TYPE":"PAYLOAD","ELEMENT_SET_NO":"999","MEAN_ANOMALY":"320.8258","INCLINATION":"53.0556","COUNTRY_CODE":"US","TIME_SYSTEM":"UTC","APOAPSIS":"548.286","SITE":"AFETR","CLASSIFICATION_TYPE":"U","PERIAPSIS":"546.264","TLE_LINE1":"1 48380U 21038AD  22150.73654207 -.00003522  00000-0 -21778-3 0  9993"},{"FILE":"3472994","CENTER_NAME":"EARTH","ARG_OF_PERICENTER":"51.0418","SEMIMAJOR_AXIS":"6925.396","MEAN_MOTION":"15.06384607","BSTAR":"-0.00012176000000","TLE_LINE2":"2 48381  53.0555  61.8129 0001932  51.0418 309.0743 15.06384607 59336","OBJECT_ID":"2021-038AE","OBJECT_NAME":"STARLINK-2630","GP_ID":"204977594","REF_FRAME":"TEME","DECAY_DATE":null,"REV_AT_EPOCH":"5933","MEAN_MOTION_DOT":"-0.00002094","INCLINATION":"53.0555","COUNTRY_CODE":"US","APOAPSIS":"548.599","TIME_SYSTEM":"UTC","OBJECT_TYPE":"PAYLOAD","LAUNCH_DATE":"2021-05-04","MEAN_ANOMALY":"309.0743","ELEMENT_SET_NO":"999","RCS_SIZE":"LARGE","EPHEMERIS_TYPE":"0","PERIAPSIS":"545.923","TLE_LINE1":"1 48381U 21038AE  22150.77433113 -.00002094  00000-0 -12176-3 0  9994","SITE":"AFETR","CLASSIFICATION_TYPE":"U","PERIOD":"95.593","EPOCH":"2022-05-30T18:35:02.209632","NORAD_CAT_ID":"48381","RA_OF_ASC_NODE":"61.8129","ECCENTRICITY":"0.00019320","MEAN_ELEMENT_THEORY":"SGP4","MEAN_MOTION_DDOT":"0.0000000000000"},{"DECAY_DATE":null,"REV_AT_EPOCH":"5933","MEAN_MOTION_DOT":"-0.00003756","REF_FRAME":"TEME","GP_ID":"204977843","OBJECT_ID":"2021-038AF","OBJECT_NAME":"STARLINK-2585","BSTAR":"-0.00023350000000","TLE_LINE2":"2 48382  53.0546  61.8421 0001829  38.6933 321.4187 15.06380951 59338","SEMIMAJOR_AXIS":"6925.407","MEAN_MOTION":"15.06380951","ARG_OF_PERICENTER":"38.6933","CENTER_NAME":"EARTH","FILE":"3472994","MEAN_MOTION_DDOT":"0.0000000000000","MEAN_ELEMENT_THEORY":"SGP4","NORAD_CAT_ID":"48382","RA_OF_ASC_NODE":"61.8421","ECCENTRICITY":"0.00018290","PERIOD":"95.593","EPOCH":"2022-05-30T18:29:43.600128","PERIAPSIS":"546.005","TLE_LINE1":"1 48382U 21038AF  22150.77064352 -.00003756  00000-0 -23350-3 0  9992","SITE":"AFETR","CLASSIFICATION_TYPE":"U","RCS_SIZE":"LARGE","EPHEMERIS_TYPE":"0","COUNTRY_CODE":"US","INCLINATION":"53.0546","APOAPSIS":"548.539","TIME_SYSTEM":"UTC","LAUNCH_DATE":"2021-05-04","OBJECT_TYPE":"PAYLOAD","MEAN_ANOMALY":"321.4187","ELEMENT_SET_NO":"999"},{"PERIAPSIS":"546.155","TLE_LINE1":"1 48383U 21038AG  22150.83330614 -.00002592  00000-0 -15526-3 0  9990","CLASSIFICATION_TYPE":"U","SITE":"AFETR","RCS_SIZE":"LARGE","EPHEMERIS_TYPE":"0","COUNTRY_CODE":"US","INCLINATION":"53.0550","APOAPSIS":"548.365","TIME_SYSTEM":"UTC","OBJECT_TYPE":"PAYLOAD","LAUNCH_DATE":"2021-05-04","MEAN_ANOMALY":"302.6754","ELEMENT_SET_NO":"999","MEAN_MOTION_DDOT":"0.0000000000000","MEAN_ELEMENT_THEORY":"SGP4","NORAD_CAT_ID":"48383","RA_OF_ASC_NODE":"61.5550","ECCENTRICITY":"0.00015960","PERIOD":"95.593","EPOCH":"2022-05-30T19:59:57.650496","SEMIMAJOR_AXIS":"6925.395","MEAN_MOTION":"15.06384842","ARG_OF_PERICENTER":"57.4388","CENTER_NAME":"EARTH","FILE":"3472707","DECAY_DATE":null,"REV_AT_EPOCH":"5992","MEAN_MOTION_DOT":"-0.00002592","GP_ID":"204949705","REF_FRAME":"TEME","OBJECT_ID":"2021-038AG","OBJECT_NAME":"STARLINK-2599","TLE_LINE2":"2 48383  53.0550  61.5550 0001596  57.4388 302.6754 15.06384842 59927","BSTAR":"-0.00015526000000"},{"REF_FRAME":"TEME","GP_ID":"204942125","REV_AT_EPOCH":"6046","DECAY_DATE":null,"MEAN_MOTION_DOT":"-0.00001010","TLE_LINE2":"2 48384  53.0572  64.5500 0001836  50.0548 310.0602 15.06381081 60462","BSTAR":"-0.00004890300000","OBJECT_ID":"2021-038AH","OBJECT_NAME":"STARLINK-2601","ARG_OF_PERICENTER":"50.0548","SEMIMAJOR_AXIS":"6925.407","MEAN_MOTION":"15.06381081","FILE":"3472495","CENTER_NAME":"EARTH","RA_OF_ASC_NODE":"64.5500","NORAD_CAT_ID":"48384","ECCENTRICITY":"0.00018360","MEAN_ELEMENT_THEORY":"SGP4","MEAN_MOTION_DDOT":"0.0000000000000","EPOCH":"2022-05-30T03:59:16.353600","PERIOD":"95.593","TLE_LINE1":"1 48384U 21038AH  22150.16616150 -.00001010  00000-0 -48903-4 0  9999","PERIAPSIS":"546.000","SITE":"AFETR","CLASSIFICATION_TYPE":"U","APOAPSIS":"548.543","TIME_SYSTEM":"UTC","INCLINATION":"53.0572","COUNTRY_CODE":"US","MEAN_ANOMALY":"310.0602","ELEMENT_SET_NO":"999","LAUNCH_DATE":"2021-05-04","OBJECT_TYPE":"PAYLOAD","RCS_SIZE":"LARGE","EPHEMERIS_TYPE":"0"}];
